FLOCK 3P-73             
1 41981U 17008AK  18013.72917524  .00001922  00000-0  82847-4 0  9996
2 41981  97.4735  79.4834 0008943 168.4030 191.7415 15.23766478 50553
FLOCK 3P-88             
1 41982U 17008AL  18013.45360204  .00002143  00000-0  91924-4 0  9996
2 41982  97.4736  79.2260 0008774 168.4319 191.7121 15.23800761 49486
FLOCK 3P-85             
1 41983U 17008AM  18013.43868434  .00002158  00000-0  92425-4 0  9996
2 41983  97.4738  79.2554 0008626 171.9469 188.1908 15.23847791 50384
FLOCK 3P-79             
1 41984U 17008AN  18013.17654975  .00001178  00000-0  51882-4 0  9994
2 41984  97.4735  78.9915 0008279 171.9552 188.1819 15.23813664 50345
FLOCK 3P-86             
1 41985U 17008AP  18013.17801311  .00001247  00000-0  54773-4 0  9992
2 41985  97.4735  78.9840 0008286 171.1975 188.9409 15.23799058 50334
FLOCK 3P-36             
1 41986U 17008AQ  18013.70568558  .00001206  00000-0  53035-4 0  9990
2 41986  97.4717  79.4266 0008143 166.8112 193.3340 15.23818719 49900
FLOCK 3P-30             
1 41987U 17008AR  18013.17211402  .00001398  00000-0  61036-4 0  9997
2 41987  97.4718  78.9149 0007971 169.7876 190.3524 15.23786229 50298
FLOCK 3P-34             
1 41988U 17008AS  18013.18354523  .00001278  00000-0  56028-4 0  9993
2 41988  97.4714  78.8819 0008226 166.3009 193.8453 15.23816356 49824
FLOCK 3P-35             
1 41989U 17008AT  18013.12108318  .00001217  00000-0  53517-4 0  9990
2 41989  97.4713  78.8102 0008373 166.6956 193.4504 15.23791600 49812
FLOCK 3P-33             
1 41990U 17008AU  18013.24694928  .00001034  00000-0  45905-4 0  9991
2 41990  97.4714  78.9551 0008017 166.8827 193.2620 15.23819419 49836
LEMUR-2-SATCHMO         
1 41991U 17008AV  18013.21306452  .00001062  00000-0  48263-4 0  9992
2 41991  97.4703  78.6778 0008070 170.1445 189.9951 15.22946210 49812
LEMUR-2-MIA-GRACE       
1 41992U 17008AW  18013.42179632  .00001605  00000-0  70397-4 0  9990
2 41992  97.4708  79.0237 0008010 169.5221 190.6184 15.23426128 49854
LEMUR-2-SMITA-SHARAD    
1 41993U 17008AX  18013.12245949  .00001281  00000-0  57301-4 0  9993
2 41993  97.4703  78.6478 0007997 170.1433 189.9962 15.23117113 49809
LEMUR-2-SPIRE-MINIONS   
1 41994U 17008AY  18013.75922500  .00001688  00000-0  73961-4 0  9999
2 41994  97.4704  79.3289 0008105 167.6672 192.4765 15.23386293 49905
LEMUR-2-RDEATON         
1 41995U 17008AZ  18013.77143937  .00001251  00000-0  55917-4 0  9998
2 41995  97.4704  79.3164 0008738 182.4213 177.6983 15.23173150 50585
LEMUR-2-NOGUECORREIG    
1 41996U 17008BA  18013.15390932  .00001375  00000-0  60803-4 0  9997
2 41996  97.4712  78.7735 0008610 184.8385 175.2770 15.23391262 49714
LEMUR-2-JOBANPUTRA      
1 41997U 17008BB  18013.72151058  .00001577  00000-0  68994-4 0  9998
2 41997  97.4713  79.3957 0008668 182.5524 177.5670 15.23523869 49895
LEMUR-2-TACHIKOMA       
1 41998U 17008BC  18013.12325429  .00001258  00000-0  56404-4 0  9997
2 41998  97.4704  78.6484 0008582 185.1271 174.9879 15.23070068 49728
BGUSAT                  
1 41999U 17008BD  18013.55936398  .00002169  00000-0  92789-4 0  9996
2 41999  97.4718  79.3238 0008535 184.2610 175.8555 15.23887955 49872
DIDO-2                  
1 42000U 17008BE  18013.53717552  .00001019  00000-0  46534-4 0  9997
2 42000  97.4699  79.0071 0008577 184.3715 175.7448 15.22866856 49864
FLOCK 3P-49             
1 42001U 17008BF  18013.16839824  .00001252  00000-0  55011-4 0  9993
2 42001  97.4716  78.9114 0008187 185.5135 174.6013 15.23778529 50348
FLOCK 3P-67             
1 42002U 17008BG  18013.43047349  .00002204  00000-0  94030-4 0  9999
2 42002  97.4716  79.1665 0008158 183.5117 176.6064 15.23957761 50546
FLOCK 3P-68             
1 42003U 17008BH  18013.17508210  .00001277  00000-0  55978-4 0  9997
2 42003  97.4712  78.8892 0008294 183.3930 176.7252 15.23819558 50140
FLOCK 3P-41             
1 42004U 17008BJ  18013.16339920  .00001145  00000-0  50530-4 0  9990
2 42004  97.4711  78.8985 0008038 185.2424 174.8730 15.23802446 50348
FLOCK 3P-45             
1 42005U 17008BK  18013.42584639  .00002172  00000-0  92714-4 0  9990
2 42005  97.4716  79.1721 0008025 184.6102 175.5062 15.23967923 50548
FLOCK 3P-48             
1 42006U 17008BL  18013.16671069  .00001203  00000-0  52967-4 0  9996
2 42006  97.4716  78.9139 0007880 185.9680 174.1465 15.23789302 50288
FLOCK 3P-43             
1 42007U 17008BM  18013.16730670  .00000801  00000-0  36360-4 0  9993
2 42007  97.4715  78.9007 0007888 185.8427 174.2720 15.23691371 50494
FLOCK 3P-42             
1 42008U 17008BN  18013.42787871  .00001520  00000-0  66115-4 0  9998
2 42008  97.4712  79.1570 0007903 184.9647 175.1513 15.23794774 50460
FLOCK 3P-61             
1 42009U 17008BP  18013.42698143  .00002944  00000-0  12525-3 0  9998
2 42009  97.4717  79.1654 0007758 186.9729 173.1401 15.23793465 50516
FLOCK 3P-40             
1 42010U 17008BQ  18013.42081068  .00002854  00000-0  12152-3 0  9998
2 42010  97.4711  79.1495 0007691 187.7080 172.4040 15.23791314 49778
FLOCK 3P-16             
1 42011U 17008BR  18013.34349012  .00001368  00000-0  59860-4 0  9993
2 42011  97.4707  79.1026 0007299 188.0859 172.0261 15.23765722 49704
FLOCK 3P-14             
1 42012U 17008BS  18013.60596498  .00001783  00000-0  76893-4 0  9991
2 42012  97.4716  79.3838 0007565 189.4227 170.6869 15.23849134 50360
FLOCK 3P-53             
1 42013U 17008BT  18013.15005481  .00001668  00000-0  72228-4 0  9999
2 42013  97.4704  78.8840 0007229 188.9552 171.1557 15.23807223 50292
FLOCK 3P-54             
1 42014U 17008BU  18013.48173630  .00002811  00000-0  11979-3 0  9994
2 42014  97.4713  79.2262 0007286 188.7596 171.3515 15.23768043 50512
PEASSS                  
1 42015U 17008BV  18013.46272467  .00001209  00000-0  53485-4 0  9990
2 42015  97.4693  79.2171 0006270 189.3941 170.7180 15.23603169 50352
AL-FARABI 1             
1 42016U 17008BW  18013.42646133  .00001403  00000-0  61044-4 0  9998
2 42016  97.4699  79.2796 0006184 189.9434 170.1681 15.23918812 50476
NAYIF-1 (EO-88)         
1 42017U 17008BX  18013.88258925  .00001563  00000-0  67625-4 0  9995
2 42017  97.4696  79.7388 0006172 188.4534 171.6600 15.23940757 50568
FLOCK 3P-23             
1 42018U 17008BY  18013.80884018  .00003188  00000-0  13540-3 0  9997
2 42018  97.4707  79.3893 0009254 163.3844 196.7697 15.23772571 49366
FLOCK 3P-76             
1 42019U 17008BZ  18013.38174094  .00001236  00000-0  54297-4 0  9994
2 42019  97.4738  79.1878 0008734 170.1635 189.9774 15.23801473 50364
FLOCK 3P-69             
1 42020U 17008CA  18013.31455727  .00001073  00000-0  47528-4 0  9992
2 42020  97.4738  79.1234 0008626 169.2260 190.9163 15.23804638 49240
FLOCK 3P-84             
1 42021U 17008CB  18013.39054691  .00001145  00000-0  50519-4 0  9990
2 42021  97.4732  79.1562 0009006 169.0176 191.1260 15.23788153 50376
FLOCK 3P-59             
1 42022U 17008CC  18013.71738847  .00002395  00000-0  10212-3 0  9992
2 42022  97.4715  79.3956 0008450 167.7072 192.4373 15.23899463 49441
FLOCK 3P-32             
1 42023U 17008CD  18013.46067390  .00002694  00000-0  11490-3 0  9994
2 42023  97.4718  79.1292 0008532 165.0296 195.1195 15.23777076 50546
FLOCK 3P-71             
1 42024U 17008CE  18013.47805196  .00002183  00000-0  93657-4 0  9999
2 42024  97.4740  79.2177 0008712 170.3743 189.7662 15.23785218 49410
FLOCK 3P-77             
1 42025U 17008CF  18013.38297251  .00001067  00000-0  47293-4 0  9992
2 42025  97.4735  79.1748 0008649 170.4140 189.7263 15.23790285 50373
FLOCK 3P-80             
1 42026U 17008CG  18013.43041839  .00002049  00000-0  87744-4 0  9994
2 42026  97.4737  79.2593 0008270 170.1271 190.0130 15.23926531 48524
FLOCK 3P-66             
1 42027U 17008CH  18013.76551930  .00001975  00000-0  84963-4 0  9996
2 42027  97.4715  79.4916 0008334 180.6188 179.5040 15.23811077 50541
FLOCK 3P-65             
1 42028U 17008CJ  18013.17249400  .00001110  00000-0  49061-4 0  9999
2 42028  97.4715  78.9052 0008170 182.9617 177.1573 15.23803428 50352
FLOCK 3P-50             
1 42029U 17008CK  18013.16903349  .00001217  00000-0  53503-4 0  9992
2 42029  97.4719  78.9193 0007945 185.0578 175.0580 15.23802703 49675
FLOCK 3P-52             
1 42030U 17008CL  18013.17115718  .00001274  00000-0  55881-4 0  9994
2 42030  97.4715  78.9021 0008068 184.3430 175.7738 15.23791492 50440
FLOCK 3P-46             
1 42031U 17008CM  18013.49432929  .00001492  00000-0  64947-4 0  9991
2 42031  97.4712  79.2264 0007982 184.1208 175.9964 15.23790938 50555
FLOCK 3P-47             
1 42032U 17008CN  18013.16772196  .00001222  00000-0  53748-4 0  9997
2 42032  97.4711  78.8955 0007895 185.7030 174.4118 15.23785701 50322
FLOCK 3P-44             
1 42033U 17008CP  18013.16343490  .00000792  00000-0  35990-4 0  9999
2 42033  97.4716  78.9121 0007940 188.5392 171.5711 15.23672421 49078
FLOCK 3P-64             
1 42034U 17008CQ  18013.42508753  .00003230  00000-0  13715-3 0  9994
2 42034  97.4711  79.1574 0007754 187.0024 173.1106 15.23784741 50536
FLOCK 3P-63             
1 42035U 17008CR  18013.42280433  .00002729  00000-0  11641-3 0  9995
2 42035  97.4712  79.1546 0007761 186.5905 173.5231 15.23768386 48501
FLOCK 3P-62             
1 42036U 17008CS  18013.72682530  .00002371  00000-0  10070-3 0  9991
2 42036  97.4714  79.5212 0007776 187.4476 172.6647 15.24047065 49751
FLOCK 3P-38             
1 42037U 17008CT  18013.42143244  .00001773  00000-0  76681-4 0  9999
2 42037  97.4710  79.1593 0007462 187.1389 172.9743 15.23768723 50480
FLOCK 3P-39             
1 42038U 17008CU  18013.41907649  .00002651  00000-0  11318-3 0  9997
2 42038  97.4711  79.1467 0007684 187.6173 172.4949 15.23761935 50430
FLOCK 3P-15             
1 42039U 17008CV  18013.48996854  .00003041  00000-0  12926-3 0  9991
2 42039  97.4713  79.2187 0007623 186.8566 173.2568 15.23794520 49725
